STARLINK-36176          
1 67026U 25293Z   25364.16670139 -.01596961  00000+0 -22615-1 0  9990
2 67026  69.9999 273.7370 0003502 273.0552 117.9222 15.59527076  3012
STARLINK-36171          
1 67027U 25293AA  25364.16670139 -.01573137  00000+0 -22236-1 0  9990
2 67027  69.9999 273.7388 0003550 268.3313 120.6635 15.59525649  3010
STARLINK-36132          
1 67028U 25293AB  25364.16670139 -.01566333  00000+0 -22175-1 0  9993
2 67028  69.9998 273.7313 0003576 269.5046 125.6042 15.59469132  3013
STARLINK-36190          
1 67029U 25293AC  25364.16670139 -.01583804  00000+0 -22423-1 0  9992
2 67029  70.0000 273.7346 0003497 270.4825 122.5071 15.59506008  3017
STARLINK-36138          
1 67030U 25294A   25364.16670139 -.00048288  00000+0 -82227-3 0  9996
2 67030  43.0000  76.5105 0001223 282.6925 291.5000 15.50582026  2903
STARLINK-36150          
1 67031U 25294B   25364.16670139 -.00042375  00000+0 -72036-3 0  9995
2 67031  43.0000  76.5051 0001295 285.0077 291.0987 15.50580498  3099
STARLINK-36131          
1 67032U 25294C   25364.16670139  .00099451  00000+0  16826-2 0  9995
2 67032  43.0003  76.4959 0001266 287.8073 292.1403 15.50528263  2909
STARLINK-36137          
1 67033U 25294D   25364.16670139 -.00041423  00000+0 -70400-3 0  9993
2 67033  42.9999  76.5002 0001174 294.7075 283.3193 15.50579222  2908
STARLINK-36140          
1 67034U 25294E   25363.58336806 -.01809082  00000+0 -32168-1 0  9990
2 67034  43.0000  79.9105 0001072 278.7388 280.9376 15.52740157  2816
STARLINK-36085          
1 67035U 25294F   25364.16670139  .00005365  00000+0  97325-4 0  9994
2 67035  43.0001  76.4820 0001548 267.7030 318.0029 15.50546704  2902
STARLINK-36125          
1 67036U 25294G   25364.16670139 -.00063470  00000+0 -10844-2 0  9997
2 67036  43.0004  76.4865 0001301 278.0509 305.7245 15.50590683  3097
STARLINK-35732          
1 67037U 25294H   25364.16670139 -.00051371  00000+0 -87537-3 0  9999
2 67037  43.0003  76.4767 0001561 267.1729 320.4339 15.50584935  3012
